start=new Date('2022-05-04T00:00:00.000Z').valueOf();
sats=[{"TLE_LINE1":"1 47128U 20088G   22123.70755437  .00000826  00000-0  74391-4 0  9992","OBJECT_ID":"2020-088G","BSTAR":"0.00007439100000","MEAN_MOTION":"15.06396289","PERIOD":"95.592","REF_FRAME":"TEME","MEAN_ANOMALY":"310.2182","EPOCH":"2022-05-03T16:58:52.697568","PERIAPSIS":"545.942","LAUNCH_DATE":"2020-11-25","GP_ID":"202634787","OBJECT_NAME":"STARLINK-1837","NORAD_CAT_ID":"47128","DECAY_DATE":null,"INCLINATION":"53.0539","FILE":"3427573","OBJECT_TYPE":"PAYLOAD","TIME_SYSTEM":"UTC","RCS_SIZE":"LARGE","ARG_OF_PERICENTER":"49.8969","CLASSIFICATION_TYPE":"U","MEAN_MOTION_DDOT":"0.0000000000000","COUNTRY_CODE":"US","ECCENTRICITY":"0.00018530","EPHEMERIS_TYPE":"0","SITE":"AFETR","SEMIMAJOR_AXIS":"6925.360","MEAN_MOTION_DOT":"0.00000826","ELEMENT_SET_NO":"999","REV_AT_EPOCH":"8020","APOAPSIS":"548.508","MEAN_ELEMENT_THEORY":"SGP4","CENTER_NAME":"EARTH","TLE_LINE2":"2 47128  53.0539 113.3195 0001853  49.8969 310.2182 15.06396289 80200","RA_OF_ASC_NODE":"113.3195"},{"PERIOD":"95.592","MEAN_MOTION":"15.06399643","BSTAR":"0.00005979900000","OBJECT_ID":"2020-088H","TLE_LINE1":"1 47129U 20088H   22123.73611957  .00000609  00000-0  59799-4 0  9998","OBJECT_TYPE":"PAYLOAD","FILE":"3427573","INCLINATION":"53.0544","DECAY_DATE":null,"NORAD_CAT_ID":"47129","GP_ID":"202635038","OBJECT_NAME":"STARLINK-1838","LAUNCH_DATE":"2020-11-25","PERIAPSIS":"545.796","REF_FRAME":"TEME","EPOCH":"2022-05-03T17:40:00.730848","MEAN_ANOMALY":"315.2424","SITE":"AFETR","EPHEMERIS_TYPE":"0","ECCENTRICITY":"0.00020490","MEAN_MOTION_DDOT":"0.0000000000000","COUNTRY_CODE":"US","CLASSIFICATION_TYPE":"U","ARG_OF_PERICENTER":"44.8730","RCS_SIZE":"LARGE","TIME_SYSTEM":"UTC","RA_OF_ASC_NODE":"123.1866","TLE_LINE2":"2 47129  53.0544 123.1866 0002049  44.8730 315.2424 15.06399643 80076","CENTER_NAME":"EARTH","APOAPSIS":"548.634","MEAN_ELEMENT_THEORY":"SGP4","REV_AT_EPOCH":"8007","ELEMENT_SET_NO":"999","MEAN_MOTION_DOT":"0.00000609","SEMIMAJOR_AXIS":"6925.350"},{"MEAN_MOTION":"15.06402294","PERIOD":"95.592","OBJECT_ID":"2020-088J","BSTAR":"0.00008822500000","TLE_LINE1":"1 47130U 20088J   22123.78588241  .00001032  00000-0  88225-4 0  9991","DECAY_DATE":null,"OBJECT_TYPE":"PAYLOAD","INCLINATION":"53.0540","FILE":"3427573","OBJECT_NAME":"STARLINK-1839","GP_ID":"202633787","NORAD_CAT_ID":"47130","LAUNCH_DATE":"2020-11-25","PERIAPSIS":"545.230","REF_FRAME":"TEME","MEAN_ANOMALY":"326.8595","EPOCH":"2022-05-03T18:51:40.240224","ECCENTRICITY":"0.00028540","EPHEMERIS_TYPE":"0","SITE":"AFETR","CLASSIFICATION_TYPE":"U","COUNTRY_CODE":"US","MEAN_MOTION_DDOT":"0.0000000000000","RCS_SIZE":"LARGE","TIME_SYSTEM":"UTC","ARG_OF_PERICENTER":"33.2573","APOAPSIS":"549.183","MEAN_ELEMENT_THEORY":"SGP4","RA_OF_ASC_NODE":"142.9544","CENTER_NAME":"EARTH","TLE_LINE2":"2 47130  53.0540 142.9544 0002854  33.2573 326.8595 15.06402294 79798","REV_AT_EPOCH":"7979","ELEMENT_SET_NO":"999","MEAN_MOTION_DOT":"0.00001032","SEMIMAJOR_AXIS":"6925.342"},{"MEAN_MOTION":"15.06401737","PERIOD":"95.592","TLE_LINE1":"1 47133U 20088M   22123.72873154  .00000347  00000-0  42227-4 0  9998","BSTAR":"0.00004222700000","OBJECT_ID":"2020-088M","OBJECT_NAME":"STARLINK-1843","GP_ID":"202633535","NORAD_CAT_ID":"47133","LAUNCH_DATE":"2020-11-25","PERIAPSIS":"546.065","DECAY_DATE":null,"OBJECT_TYPE":"PAYLOAD","FILE":"3427573","INCLINATION":"53.0536","REF_FRAME":"TEME","MEAN_ANOMALY":"306.8236","EPOCH":"2022-05-03T17:29:22.405056","CLASSIFICATION_TYPE":"U","MEAN_MOTION_DDOT":"0.0000000000000","COUNTRY_CODE":"US","ECCENTRICITY":"0.00016510","SITE":"AFETR","EPHEMERIS_TYPE":"0","RCS_SIZE":"LARGE","TIME_SYSTEM":"UTC","ARG_OF_PERICENTER":"53.2904","REV_AT_EPOCH":"8006","APOAPSIS":"548.352","MEAN_ELEMENT_THEORY":"SGP4","RA_OF_ASC_NODE":"123.2118","TLE_LINE2":"2 47133  53.0536 123.2118 0001651  53.2904 306.8236 15.06401737 80062","CENTER_NAME":"EARTH","SEMIMAJOR_AXIS":"6925.343","MEAN_MOTION_DOT":"0.00000347","ELEMENT_SET_NO":"999"},{"SITE":"AFETR","EPHEMERIS_TYPE":"0","ECCENTRICITY":"0.00018760","COUNTRY_CODE":"US","MEAN_MOTION_DDOT":"0.0000000000000","CLASSIFICATION_TYPE":"U","ARG_OF_PERICENTER":"51.0451","RCS_SIZE":"LARGE","TIME_SYSTEM":"UTC","RA_OF_ASC_NODE":"134.2358","TLE_LINE2":"2 47134  53.0541 134.2358 0001876  51.0451 309.0705 15.06387515 80196","CENTER_NAME":"EARTH","APOAPSIS":"548.551","MEAN_ELEMENT_THEORY":"SGP4","REV_AT_EPOCH":"8019","MEAN_MOTION_DOT":"-0.00000077","ELEMENT_SET_NO":"999","SEMIMAJOR_AXIS":"6925.387","PERIOD":"95.593","MEAN_MOTION":"15.06387515","OBJECT_ID":"2020-088N","BSTAR":"0.00001375400000","TLE_LINE1":"1 47134U 20088N   22123.50299778 -.00000077  00000-0  13754-4 0  9993","OBJECT_TYPE":"PAYLOAD","FILE":"3427389","INCLINATION":"53.0541","DECAY_DATE":null,"GP_ID":"202608429","NORAD_CAT_ID":"47134","OBJECT_NAME":"STARLINK-1844","PERIAPSIS":"545.953","LAUNCH_DATE":"2020-11-25","MEAN_ANOMALY":"309.0705","REF_FRAME":"TEME","EPOCH":"2022-05-03T12:04:19.008192"},{"REF_FRAME":"TEME","EPOCH":"2022-05-03T17:18:47.295936","MEAN_ANOMALY":"312.6321","OBJECT_NAME":"STARLINK-1845","GP_ID":"202634540","NORAD_CAT_ID":"47135","PERIAPSIS":"545.848","LAUNCH_DATE":"2020-11-25","DECAY_DATE":null,"OBJECT_TYPE":"PAYLOAD","FILE":"3427573","INCLINATION":"53.0537","TLE_LINE1":"1 47135U 20088P   22123.72138074 -.00000268  00000-0  95040-6 0  9991","BSTAR":"0.00000095040000","OBJECT_ID":"2020-088P","MEAN_MOTION":"15.06394374","PERIOD":"95.592","SEMIMAJOR_AXIS":"6925.366","MEAN_MOTION_DOT":"-0.00000268","ELEMENT_SET_NO":"999","REV_AT_EPOCH":"8006","APOAPSIS":"548.614","MEAN_ELEMENT_THEORY":"SGP4","RA_OF_ASC_NODE":"123.2648","CENTER_NAME":"EARTH","TLE_LINE2":"2 47135  53.0537 123.2648 0001997  47.4836 312.6321 15.06394374 80063","RCS_SIZE":"LARGE","TIME_SYSTEM":"UTC","ARG_OF_PERICENTER":"47.4836","CLASSIFICATION_TYPE":"U","COUNTRY_CODE":"US","MEAN_MOTION_DDOT":"0.0000000000000","ECCENTRICITY":"0.00019970","SITE":"AFETR","EPHEMERIS_TYPE":"0"},{"MEAN_MOTION":"15.06390109","PERIOD":"95.593","TLE_LINE1":"1 47136U 20088Q   22123.72045832 -.00000738  00000-0 -30670-4 0  9990","BSTAR":"-0.00003067000000","OBJECT_ID":"2020-088Q","GP_ID":"202633288","NORAD_CAT_ID":"47136","OBJECT_NAME":"STARLINK-1846","PERIAPSIS":"546.078","LAUNCH_DATE":"2020-11-25","DECAY_DATE":null,"OBJECT_TYPE":"PAYLOAD","FILE":"3427573","INCLINATION":"53.0542","MEAN_ANOMALY":"299.5019","REF_FRAME":"TEME","EPOCH":"2022-05-03T17:17:27.598848","CLASSIFICATION_TYPE":"U","COUNTRY_CODE":"US","MEAN_MOTION_DDOT":"0.0000000000000","ECCENTRICITY":"0.00016830","SITE":"AFETR","EPHEMERIS_TYPE":"0","RCS_SIZE":"LARGE","TIME_SYSTEM":"UTC","ARG_OF_PERICENTER":"60.6137","REV_AT_EPOCH":"7992","MEAN_ELEMENT_THEORY":"SGP4","APOAPSIS":"548.409","RA_OF_ASC_NODE":"133.2730","CENTER_NAME":"EARTH","TLE_LINE2":"2 47136  53.0542 133.2730 0001683  60.6137 299.5019 15.06390109 79928","SEMIMAJOR_AXIS":"6925.379","MEAN_MOTION_DOT":"-0.00000738","ELEMENT_SET_NO":"999"},{"REV_AT_EPOCH":"8006","TLE_LINE2":"2 47137  53.0541 123.3363 0001883  48.9050 311.2101 15.06398473 80068","CENTER_NAME":"EARTH","RA_OF_ASC_NODE":"123.3363","APOAPSIS":"548.522","MEAN_ELEMENT_THEORY":"SGP4","SEMIMAJOR_AXIS":"6925.353","ELEMENT_SET_NO":"999","MEAN_MOTION_DOT":"0.00000276","MEAN_MOTION_DDOT":"0.0000000000000","COUNTRY_CODE":"US","CLASSIFICATION_TYPE":"U","EPHEMERIS_TYPE":"0","SITE":"AFETR","ECCENTRICITY":"0.00018830","ARG_OF_PERICENTER":"48.9050","TIME_SYSTEM":"UTC","RCS_SIZE":"LARGE","LAUNCH_DATE":"2020-11-25","PERIAPSIS":"545.914","NORAD_CAT_ID":"47137","GP_ID":"202634035","OBJECT_NAME":"STARLINK-1849","INCLINATION":"53.0541","FILE":"3427573","OBJECT_TYPE":"PAYLOAD","DECAY_DATE":null,"MEAN_ANOMALY":"311.2101","REF_FRAME":"TEME","EPOCH":"2022-05-03T16:52:14.338272","PERIOD":"95.592","MEAN_MOTION":"15.06398473","TLE_LINE1":"1 47137U 20088R   22123.70294373  .00000276  00000-0  37455-4 0  9998","OBJECT_ID":"2020-088R","BSTAR":"0.00003745500000"},{"GP_ID":"202634788","NORAD_CAT_ID":"47138","OBJECT_NAME":"STARLINK-1850","LAUNCH_DATE":"2020-11-25","PERIAPSIS":"545.625","OBJECT_TYPE":"PAYLOAD","FILE":"3427573","INCLINATION":"53.0557","DECAY_DATE":null,"EPOCH":"2022-05-03T17:40:38.033184","REF_FRAME":"TEME","MEAN_ANOMALY":"320.9664","PERIOD":"95.592","MEAN_MOTION":"15.06401422","TLE_LINE1":"1 47138U 20088S   22123.73655131  .00001654  00000-0  12989-3 0  9990","OBJECT_ID":"2020-088S","BSTAR":"0.00012989000000","REV_AT_EPOCH":"8000","RA_OF_ASC_NODE":"128.1966","TLE_LINE2":"2 47138  53.0557 128.1966 0002288  39.1490 320.9664 15.06401422 80002","CENTER_NAME":"EARTH","APOAPSIS":"548.794","MEAN_ELEMENT_THEORY":"SGP4","SEMIMAJOR_AXIS":"6925.344","ELEMENT_SET_NO":"999","MEAN_MOTION_DOT":"0.00001654","MEAN_MOTION_DDOT":"0.0000000000000","COUNTRY_CODE":"US","CLASSIFICATION_TYPE":"U","EPHEMERIS_TYPE":"0","SITE":"AFETR","ECCENTRICITY":"0.00022880","ARG_OF_PERICENTER":"39.1490","RCS_SIZE":"LARGE","TIME_SYSTEM":"UTC"},{"BSTAR":"0.00003643000000","OBJECT_ID":"2020-088T","TLE_LINE1":"1 47139U 20088T   22123.73195814  .00000261  00000-0  36430-4 0  9999","MEAN_MOTION":"15.06389646","PERIOD":"95.593","REF_FRAME":"TEME","MEAN_ANOMALY":"312.1787","EPOCH":"2022-05-03T17:34:01.183296","DECAY_DATE":null,"FILE":"3427573","INCLINATION":"53.0530","OBJECT_TYPE":"PAYLOAD","LAUNCH_DATE":"2020-11-25","PERIAPSIS":"545.869","GP_ID":"202635039","NORAD_CAT_ID":"47139","OBJECT_NAME":"STARLINK-1852","TIME_SYSTEM":"UTC","RCS_SIZE":"LARGE","ARG_OF_PERICENTER":"47.9371","ECCENTRICITY":"0.00019870","EPHEMERIS_TYPE":"0","SITE":"AFETR","CLASSIFICATION_TYPE":"U","COUNTRY_CODE":"US","MEAN_MOTION_DDOT":"0.0000000000000","MEAN_MOTION_DOT":"0.00000261","ELEMENT_SET_NO":"999","SEMIMAJOR_AXIS":"6925.380","APOAPSIS":"548.621","MEAN_ELEMENT_THEORY":"SGP4","TLE_LINE2":"2 47139  53.0530 138.2131 0001987  47.9371 312.1787 15.06389646 79853","CENTER_NAME":"EARTH","RA_OF_ASC_NODE":"138.2131","REV_AT_EPOCH":"7985"}];
